[{"OBJECT_NAME":"STARLINK-31649","OBJECT_ID":"2024-062S","EPOCH":"2026-03-09T21:41:50.558496","MEAN_MOTION":15.30187012,"ECCENTRICITY":0.00013709,"INCLINATION":53.1596,"RA_OF_ASC_NODE":254.7077,"ARG_OF_PERICENTER":102.4002,"MEAN_ANOMALY":257.7152,"EPHEMERIS_TYPE":0,"CLASSIFICATION_TYPE":"U","NORAD_CAT_ID":59390,"ELEMENT_SET_NO":999,"REV_AT_EPOCH":10970,"BSTAR":2.4924742e-5,"MEAN_MOTION_DOT":3.79e-6,"MEAN_MOTION_DDOT":0},{"OBJECT_NAME":"DMSP 5D-2 F13 DEB","OBJECT_ID":"1995-015HL","EPOCH":"2026-02-09T02:06:19.247328","MEAN_MOTION":15.12822218,"ECCENTRICITY":0.00117732,"INCLINATION":98.8603,"RA_OF_ASC_NODE":96.8879,"ARG_OF_PERICENTER":223.037,"MEAN_ANOMALY":136.9936,"EPHEMERIS_TYPE":0,"CLASSIFICATION_TYPE":"U","NORAD_CAT_ID":42294,"ELEMENT_SET_NO":999,"REV_AT_EPOCH":55633,"BSTAR":0.010466292,"MEAN_MOTION_DOT":0.00188804,"MEAN_MOTION_DDOT":0}]
